BEIDOU 3 (C01)          
1 36287U 10001A   22304.84632920 -.00000283  00000+0  00000+0 0  9995
2 36287   1.7442  49.1450 0000643 258.9025 177.2429  1.00273340 46881
BEIDOU 5 (C06)          
1 36828U 10036A   22304.58981326 -.00000104  00000+0  00000+0 0  9994
2 36828  54.1971 174.9861 0030245 184.7328 359.2345  1.00259399 44949
BEIDOU 6 (C04)          
1 37210U 10057A   22304.82966043 -.00000115  00000+0  00000+0 0  9991
2 37210   0.7941  43.0364 0007203 156.6846 299.1082  1.00271842 44008
BEIDOU 7 (C07)          
1 37256U 10068A   22304.60236034 -.00000191  00000+0  00000+0 0  9993
2 37256  49.9725 288.0147 0023284 207.1871 229.0411  1.00263917 43517
BEIDOU 8 (C08)          
1 37384U 11013A   22304.74441624 -.00000190  00000+0  00000+0 0  9993
2 37384  60.4910  52.9158 0024583 180.6329 182.7523  1.00271779 42398
BEIDOU 9 (C09)          
1 37763U 11038A   22303.79893887 -.00000042  00000+0  00000+0 0  9993
2 37763  54.4768 177.4998 0098454 227.1546  14.0639  1.00253981 41359
BEIDOU 10 (C10)         
1 37948U 11073A   22304.40887279 -.00000141  00000+0  00000+0 0  9994
2 37948  50.0876 287.6625 0086560 220.5241 133.7574  1.00263288 40112
BEIDOU 11 (C05)         
1 38091U 12008A   22304.88869056  .00000054  00000+0  00000+0 0  9990
2 38091   1.8713  70.3017 0008884 331.4354  17.1099  1.00268473 39192
BEIDOU 12 (C11)         
1 38250U 12018A   22304.66972370 -.00000078  00000+0  00000+0 0  9995
2 38250  56.6495 349.0607 0024374 252.1705 205.5406  1.86234442 71628
BEIDOU 13 (C12)         
1 38251U 12018B   22305.11315648 -.00000078  00000+0  00000+0 0  9996
2 38251  56.5668 348.3617 0015363 252.8472 186.2947  1.86234162 71634
BEIDOU 15 (C14)         
1 38775U 12050B   22304.65201654  .00000062  00000+0  00000+0 0  9994
2 38775  55.4814 107.1020 0010976 333.5485 352.1663  1.86231402 68999
BEIDOU 16 (C02)         
1 38953U 12059A   22305.59285586 -.00000181  00000+0  00000+0 0  9994
2 38953   1.2615  81.6948 0024017 293.5786 323.0170  1.00273679 36779
BEIDOU 17 (C31)         
1 40549U 15019A   22304.70850380 -.00000159  00000+0  00000+0 0  9994
2 40549  51.6509 311.1693 0038409 199.8369 239.3977  1.00267698 27809
BEIDOU 18 (C57)         
1 40748U 15037A   22304.70796094 -.00000077  00000+0  00000+0 0  9995
2 40748  55.8137 347.1578 0001351 333.0334 103.7241  1.86233450 49450
BEIDOU 19 (C58)         
1 40749U 15037B   22304.55876084 -.00000076  00000+0  00000+0 0  9996
2 40749  55.8176 347.1538 0004517 293.4961 177.3707  1.86233108 49445
BEIDOU 20 (C18)         
1 40938U 15053A   22304.60020812 -.00000128  00000+0  00000+0 0  9998
2 40938  51.2940 274.3049 0045256 200.4698 236.5132  1.00261350 26072
BEIDOU IGSO-6 (C13)     
1 41434U 16021A   22304.98926669 -.00000149  00000+0  00000+0 0  9995
2 41434  58.2990  51.4249 0047342 216.7002 220.9175  1.00256456 24207
BEIDOU-2 G7 (C03)       
1 41586U 16037A   22304.81932988 -.00000357  00000+0  00000+0 0  9994
2 41586   1.6780  68.8302 0007933 353.0095  23.7975  1.00272333 23517
BEIDOU-3 M1 (C19)       
1 43001U 17069A   22304.47976017  .00000062  00000+0  00000+0 0  9999
2 43001  55.6347 107.1262 0007245 292.4188  74.1910  1.86231666 33930
BEIDOU-3 M2 (C20)       
1 43002U 17069B   22305.53422247  .00000066  00000+0  00000+0 0  9993
2 43002  55.6350 107.1267 0005492 326.1620  70.2469  1.86231305 33945
BEIDOU-3 M3 (C27)       
1 43107U 18003A   22305.23677289 -.00000080  00000+0  00000+0 0  9990
2 43107  55.2695 347.9976 0003250  65.0454 298.2832  1.86232601 32703
BEIDOU-3 M4 (C28)       
1 43108U 18003B   22304.71479811 -.00000079  00000+0  00000+0 0  9992
2 43108  55.2599 348.0028 0004213 245.6553 170.8318  1.86230989 32692
BEIDOU-3 M5 (C21)       
1 43207U 18018A   22303.46382734  .00000057  00000+0  00000+0 0  9991
2 43207  55.5935 107.2695 0003845  10.1191 349.8999  1.86231592 32051
BEIDOU-3 M6 (C22)       
1 43208U 18018B   22302.99356084  .00000055  00000+0  00000+0 0  9996
2 43208  55.5917 107.2899 0005166 309.3205  50.6435  1.86231614 32041
BEIDOU-3 M7 (C29)       
1 43245U 18029A   22305.38041525 -.00000077  00000+0  00000+0 0  9991
2 43245  55.1742 345.7503 0001371 234.5741 135.5968  1.86232739 31247
BEIDOU-3 M8 (C30)       
1 43246U 18029B   22305.30663889 -.00000077  00000+0  10000-3 0  9992
2 43246  55.1723 345.7816 0003222 343.0967  24.2608  1.86232997 31237
BEIDOU IGSO-7 (C16)     
1 43539U 18057A   22305.58686624 -.00000117  00000+0  00000+0 0  9990
2 43539  55.0889 174.5191 0051272 226.3473 325.6666  1.00268720 15885
BEIDOU-3 M9 (C23)       
1 43581U 18062A   22305.27804653 -.00000022  00000+0  00000+0 0  9998
2 43581  54.2416 227.4028 0004582 291.1009 268.4566  1.86232028 28976
BEIDOU-3 M10 (C24)      
1 43582U 18062B   22303.38930799  .00000008  00000+0  00000+0 0  9993
2 43582  54.2422 227.4564 0005824 358.2076 106.9963  1.86232529 28948
BEIDOU-3 M11 (C25)      
1 43602U 18067A   22305.50322721 -.00000025  00000+0  00000+0 0  9997
2 43602  54.3246 226.0117 0007369   8.1475 115.4065  1.86231578 28474
BEIDOU-3 M12 (C26)      
1 43603U 18067B   22305.18631094 -.00000020  00000+0  00000+0 0  9993
2 43603  54.3215 225.9889 0004614 355.5824 185.8427  1.86231519 28481
BEIDOU-3 M13 (C32)      
1 43622U 18072A   22304.61444589  .00000062  00000+0  00000+0 0  9993
2 43622  55.5618 106.7811 0004014 284.4004 262.5429  1.86231689 27984
BEIDOU-3 M14 (C33)      
1 43623U 18072B   22305.20384513  .00000064  00000+0  00000+0 0  9992
2 43623  55.5640 106.7540 0002236 337.5463 334.8016  1.86231701 27993
BEIDOU-3 M15 (C34)      
1 43647U 18078A   22305.16369089 -.00000078  00000+0 -28286+1 0  9994
2 43647  55.0692 345.9049 0005322 355.8967 185.2588  1.86232877 27507
BEIDOU-3 M16 (C35)      
1 43648U 18078B   22304.57593675 -.00000076  00000+0  00000+0 0  9999
2 43648  55.0660 345.9310 0003095   6.4168  48.1968  1.86232344 27510
BEIDOU-3 G1 (C59)       
1 43683U 18085A   22304.85188369 -.00000282  00000+0  00000+0 0  9996
2 43683   1.0586 145.9081 0004404  57.2922 283.6299  1.00267988 14772
BEIDOU-3 M17 (C36)      
1 43706U 18093A   22304.64488504 -.00000012  00000+0  00000+0 0  9993
2 43706  54.3224 227.3209 0009337 283.8235  76.0965  1.86231760 26858
BEIDOU-3 M18 (C37)      
1 43707U 18093B   22305.32049992 -.00000022  00000+0  00000+0 0  9995
2 43707  54.3239 227.2877 0008669 307.0949 237.1533  1.86232371 26875
BEIDOU-3 IGSO-1 (C38)   
1 44204U 19023A   22304.70354007 -.00000222  00000+0  00000+0 0  9991
2 44204  56.7639  51.5156 0024165 190.6059 170.5637  1.00268640 13081
BEIDOU-2 G8             
1 44231U 19027A   22304.79979922 -.00000250  00000+0  00000+0 0  9994
2 44231   1.1877  79.6640 0006380 123.3186 269.6047  1.00272699 12792
BEIDOU-3 IGSO-2 (C39)   
1 44337U 19035A   22305.53685553 -.00000114  00000+0  00000+0 0  9996
2 44337  55.1264 170.5050 0025626 189.4973 353.1004  1.00262392 12426
BEIDOU-3 M23 (C45)      
1 44542U 19061A   22305.11820131 -.00000019  00000+0  00000+0 0  9994
2 44542  54.5490 227.4737 0008926 343.8837  16.1095  1.86231432 21130
BEIDOU-3 M24 (C46)      
1 44543U 19061B   22304.50216265 -.00000009  00000+0  00000+0 0  9993
2 44543  54.5494 227.4627 0006199 328.1463 250.3063  1.86231988 21115
BEIDOU-3 IGSO-3         
1 44709U 19073A   22304.62812428 -.00000168  00000+0  10000-3 0  9997
2 44709  57.0439 294.9667 0027072 183.5640 267.2844  1.00267732 11162
BEIDOU-3 M21            
1 44793U 19078A   22305.49479559 -.00000078  00000+0  10000-3 0  9995
2 44793  54.9182 345.8986 0004963   8.2568 348.5735  1.86232376 19993
BEIDOU-3 M22            
1 44794U 19078B   22305.13786413 -.00000078  00000+0  00000+0 0  9992
2 44794  54.8925 345.8994 0003024 356.9677  32.4544  1.86232822 19991
BEIDOU-3 M19            
1 44864U 19090A   22304.26229966  .00000060  00000+0  00000+0 0  9992
2 44864  55.4963 106.9964 0014936 267.8202  88.9230  1.86231938 19556
BEIDOU-3 M20            
1 44865U 19090B   22304.64195058  .00000062  00000+0  00000+0 0  9991
2 44865  55.4988 107.0161 0012810 283.2644  57.8610  1.86231891 19539
BEIDOU-3 G2             
1 45344U 20017A   22304.75118956 -.00000147  00000+0  00000+0 0  9994
2 45344   2.0062 359.1640 0003186 175.9889 215.3660  1.00272052  9983
BEIDOU-3 G3             
1 45807U 20040A   22304.84532803 -.00000359  00000+0  00000+0 0  9990
2 45807   1.1440 308.3613 0008604 339.2478 167.4019  1.00273295  8795
